# From MPEC 2022-S20
C/1995 O1 (Hale-Bopp),e,89.6366,281.9506,130.4118,179.7163,0.0004091,0.99492558,0.0000,03/30.4325/1997,2000,g -2.0,4.0
# From NK 1615
P/1996 R2 (Lagerkvist),e,2.5990,40.0384,333.5089,3.771726,0.1345532,0.31410030,336.8910,12/26.0/2025,2000,g 11.5,4.0
# From MPC 73460
C/1997 BA6 (Spacewatch),e,72.6898,317.7770,286.0860,2939,0.0000062,0.99882127,0.0000,11/15.7276/1999,2000,g 10.0,2.0
# From MPC 75703
P/1998 VS24 (LINEAR),e,5.0300,159.0332,244.9321,4.519646,0.1025764,0.24345319,296.2849,12/26.0/2025,2000,g 13.0,2.0
# From MPC 73461
C/1999 F1 (Catalina),e,91.8601,19.9518,255.3239,20545,0.0000003,0.99971709,0.0000,01/31.2058/2002,2000,g  9.5,2.0
# From MPC186628
C/1999 J2 (Skiff),h,04/09.2383/2000,86.4040,50.2762,126.9711,1.000781,7.072258,2000,2.0,4.0
# From NK 731
P/1999 RO28 (LONEOS),e,7.5672,137.8398,231.3591,3.425154,0.1554834,0.67217763,8.8149,12/26.0/2025,2000,g 20.0,2.0
# From MPC 43758
C/1999 S2 (McNaught-Watson),h,11/07.2247/1997,65.6264,74.4448,223.4772,1.002339,6.503731,2000,2.0,4.0
# From MPC 75704
P/1999 XN120 (Catalina),e,5.0300,285.2382,161.4883,4.189606,0.1149329,0.21279372,0.5780,12/26.0/2025,2000,g 13.5,2.0
# From NK 744
P/2000 R2 (LINEAR),e,11.6793,160.2682,176.5821,3.468326,0.1525894,0.53054376,3.6169,12/26.0/2025,2000,g 18.0,4.0
# From MPC 43019
P/2001 H5 (NEAT),e,8.3727,328.6837,224.5802,6.093387,0.0655263,0.59962716,244.6384,12/26.0/2025,2000,g 12.0,4.0
# From MPC 46619
C/2001 M10 (NEAT),e,27.9947,293.9614,5.6107,26.72323,0.0071346,0.79927765,64.0107,12/26.0/2025,2000,g  8.0,4.0
# From MPEC 2015-N31
C/2002 A1 (LINEAR),e,14.0799,81.0453,18.7170,16.04052,0.0153418,0.70977534,134.8811,12/26.0/2025,2000,g 12.5,2.0
# From MPC 89006
C/2002 A2 (LINEAR),e,14.0339,81.0121,19.1122,15.89555,0.0155522,0.70744683,136.6211,12/26.0/2025,2000,g 11.0,2.0
# From MPC 45962
C/2002 B1 (LINEAR),e,51.0290,58.2680,76.0821,9.874601,0.0317632,0.77050362,275.3370,12/26.0/2025,2000,g 11.5,4.0
# From MPC188408
C/2002 CE10 (LINEAR),e,145.3752,147.5602,126.2382,9.765786,0.0322956,0.78942364,265.3507,12/26.0/2025,2000,g 13.0,2.0
# From MPEC 2023-UR6
P/2002 EJ57 (LINEAR),e,4.9909,330.2202,167.2962,6.454554,0.0601042,0.59415673,164.9614,12/26.0/2025,2000,g 12.5,4.0
# From MPEC 2015-N31
C/2002 L9 (NEAT),h,04/02.9060/2004,68.2221,110.4979,231.5850,1.000506,7.073336,2000,8.5,2.0
# From MPC 75007
C/2002 VQ94 (LINEAR),e,70.6233,35.0565,99.8129,187.4459,0.0003841,0.96398406,2.7868,12/26.0/2025,2000,g  9.5,2.0
# From MPC186628
C/2003 A2 (Gleason),e,8.0711,154.4616,346.5414,7764,0.0000014,0.99853645,0.0000,11/08.2342/2003,2000,g  3.5,4.0
# From MPC 51182
C/2003 E1 (NEAT),e,33.4708,137.1163,103.9289,13.77334,0.0192817,0.76201151,154.4777,12/26.0/2025,2000,g 12.5,2.0
# From MPC 50354
P/2003 F2 (NEAT),e,11.5860,358.9597,193.0934,6.553370,0.0587499,0.53642110,131.4381,12/26.0/2025,2000,g 16.5,2.0
# From unp
P/2003 L1 (Scotti),e,9.0427,225.8416,355.0300,6.693971,0.0569087,0.25183146,113.4819,12/26.0/2025,2000,g  9.5,4.0
# From MPC105235
P/2003 T12 (SOHO),e,11.0207,174.5702,219.8039,2.584243,0.2372488,0.77005327,128.1917,12/26.0/2025,2000,g 17.0,4.0
# From MPC 57131
C/2004 B1 (LINEAR),h,02/07.9391/2006,113.9119,273.3367,328.1271,1.000963,1.602451,2000,10.5,2.0
# From MPC 51368
C/2004 C1 (Larsen),e,28.8625,151.9549,315.9683,11.62433,0.0248686,0.62580256,359.9917,03/19.0/2003,2000,g 13.5,2.0
# From MPEC 2022-YN2
P/2004 FY140 (LINEAR),e,2.1629,327.2625,254.3166,4.968499,0.0889951,0.19288906,322.3086,12/26.0/2025,2000,g 12.5,2.0
# From MPC 53304
P/2004 R3 (LINEAR-NEAT),e,12.8051,305.1235,37.0539,4.744609,0.0953682,0.25486219,149.0855,12/26.0/2025,2000,g 14.5,4.0
# From MPC 53465
C/2004 T3 (Siding Spring),e,71.7718,50.3498,259.8497,48600,0.0000001,0.99981673,0.0000,04/04.6058/2003,2000,g  2.5,4.0
# From MPC 75705
P/2004 V5 (LINEAR-Hill),e,19.3307,47.7361,87.1527,8.053623,0.0431238,0.44949162,334.6617,12/26.0/2025,2000,g  8.0,4.0
# From unp
P/2004 V5-A (LINEAR-Hill),e,19.3341,47.7631,87.1176,8.054459,0.0431171,0.44957594,334.6761,12/26.0/2025,2000,g  8.0,4.0
# From MPC 75705
P/2004 V5-B (LINEAR-Hill),e,19.3309,47.7365,87.1571,8.053832,0.0431221,0.44950615,334.6207,12/26.0/2025,2000,g  8.0,4.0
# From MPC 54164
P/2005 E1 (Tubbiolo),e,4.2606,335.4857,193.9637,7.073366,0.0523920,0.37755521,42.9377,12/26.0/2025,2000,g 10.0,4.0
# From MPC 74246
P/2005 L1 (McNaught),e,9.9493,124.1608,165.8149,3.852148,0.1303616,0.27876170,181.2169,12/26.0/2025,2000,g  9.5,4.0
# From MPC 87062
C/2005 L3 (McNaught),e,139.3143,288.7781,46.9676,4079,0.0000038,0.99863307,0.0000,01/14.5280/2008,2000,g  4.0,4.0
# From MPC 75706
P/2005 S2 (Skiff),e,3.1393,161.3267,230.0721,7.981434,0.0437102,0.19822252,310.6897,12/26.0/2025,2000,g  7.5,4.0
# From MPC 73461
P/2005 T3 (Read),e,6.2334,27.6189,7.1711,7.568072,0.0473398,0.17371803,348.7323,12/26.0/2025,2000,g  9.0,4.0
# From MPC 75707
P/2006 HR30 (Siding Spring),e,31.9655,309.7464,117.5279,7.793972,0.0452966,0.84353775,313.8673,12/26.0/2025,2000,g 11.0,4.0
# From MPEC 2022-L66
C/2006 S3 (LONEOS),h,04/16.6553/2012,166.0456,38.5405,140.1466,1.000703,5.118372,2000,2.0,4.0
# From MPC 84315
C/2007 D1 (LINEAR),e,41.5179,170.9895,339.8079,1298,0.0000211,0.99326938,0.0000,06/15.9683/2007,2000,g  3.5,4.0
# From MPEC 2024-GJ3
P/2007 K2 (Gibbs),e,7.5877,188.3154,347.0423,7.399556,0.0489661,0.68695587,340.6041,12/26.0/2025,2000,g 14.0,4.0
# From MPC 73462
P/2007 S1 (Zhao),e,5.9626,141.3213,245.2852,3.819204,0.1320519,0.33768039,155.4139,12/26.0/2025,2000,g 13.0,4.0
# From MPEC 2024-GJ3
C/2007 S2 (Lemmon),e,16.9207,296.1345,210.1487,12.49223,0.0223226,0.55740839,141.0279,12/26.0/2025,2000,g  6.5,4.0
# From MPEC 2024-GJ3
C/2008 E1 (Catalina),e,34.8637,188.8815,270.4185,10.76358,0.0279106,0.55294493,176.7253,12/26.0/2025,2000,g  7.0,4.0
# From MPC 95207
C/2008 S3 (Boattini),h,06/08.9848/2011,162.7437,55.0211,40.1973,1.001819,8.056846,2000,4.0,4.0
# From MPC 75710
P/2008 Y3 (McNaught),e,38.7802,262.8285,238.1870,8.034096,0.0432811,0.44859779,268.6949,12/26.0/2025,2000,g  8.5,4.0
# From MPC 75710
P/2009 B1 (Boattini),e,22.2597,297.1090,129.0251,6.721861,0.0565548,0.63580913,349.4527,12/26.0/2025,2000,g 13.0,4.0
# From MPC 95208
C/2009 F4 (McNaught),e,79.1988,53.5025,260.5035,25953,0.0000002,0.99978896,0.0000,12/25.6628/2011,2000,g  3.0,4.0
# From MPC103843
C/2009 P1 (Garradd),e,106.2303,325.8583,90.4514,10773,0.0000009,0.99985720,0.0000,12/24.4664/2011,2000,g  4.0,4.0
# From MPC 68902
P/2009 Q5 (McNaught),e,40.9482,160.1844,209.2014,7.427134,0.0486936,0.60911359,289.2226,12/26.0/2025,2000,g 10.0,4.0
# From MPC105235
P/2009 WX51 (Catalina),e,9.5982,31.5216,118.2950,3.082788,0.1820911,0.73974637,339.9602,12/26.0/2025,2000,g 19.0,2.0
# From MPC 74247
P/2009 Y2 (Kowalski),e,29.9725,262.0781,172.2738,6.534646,0.0590026,0.63730185,339.8916,12/26.0/2025,2000,g 13.0,4.0
# From MPC 75008
P/2010 C1 (Scotti),e,9.1158,141.5837,2.8780,7.133211,0.0517341,0.26442973,308.2751,12/26.0/2025,2000,g  9.5,4.0
# From MPC 75008
P/2010 D2 (WISE),e,57.1395,319.8796,120.0557,6.713418,0.0566616,0.45155932,328.2283,12/26.0/2025,2000,g 16.0,4.0
# From MPC 72851
P/2010 H2 (Vales),e,14.2782,64.1895,128.0722,3.835233,0.1312250,0.19796459,38.2141,12/26.0/2025,2000,g  6.0,4.0
# From MPC 70361
P/2010 H3 (SOHO),e,23.1407,77.1691,26.0873,3.034629,0.1864428,0.98558092,0.0000,05/25.2477/2026,2000,g 20.0,2.0
# From MPEC 2024-GJ3
P/2010 H4 (Scotti),e,2.3177,44.7487,179.0783,6.619992,0.0578653,0.26740032,330.4018,12/26.0/2025,2000,g 10.5,4.0
# From MPC 74637
P/2010 H5 (Scotti),e,14.0523,24.3971,175.3679,7.168332,0.0513543,0.15639047,296.0216,12/26.0/2025,2000,g 13.0,2.0
# From MPC 84315
P/2010 JC81 (WISE),e,38.7417,30.8344,12.5222,8.103087,0.0427296,0.77787495,228.5068,12/26.0/2025,2000,g  9.0,4.0
# From MPC 83518
C/2010 L3 (Catalina),e,102.6469,38.3234,121.7558,38936,0.0000001,0.99974655,0.0000,11/12.5132/2010,2000,g  4.5,4.0
# From MPC115879
C/2010 S1 (LINEAR),h,05/20.3359/2013,125.4399,93.6716,118.7240,1.000704,5.909535,2000,3.5,4.0
# From MPC 74248
P/2010 T2 (PANSTARRS),e,7.8529,57.7063,349.8731,5.569830,0.0749793,0.32451497,50.5528,12/26.0/2025,2000,g 11.5,4.0
# From MPEC 2023-J95
C/2010 U3 (Boattini),h,02/28.7848/2019,55.5302,42.9945,88.1083,1.000176,8.440751,2000,1.0,4.0
# From MPC 79021
P/2010 UH55 (Spacewatch),e,8.0377,232.7975,225.3716,6.645528,0.0575320,0.56467346,308.8303,12/26.0/2025,2000,g 11.0,4.0
# From MPC 84021
P/2011 C2 (Gibbs),e,10.8981,11.9669,160.3152,7.406295,0.0488993,0.27166986,250.9577,12/26.0/2025,2000,g  9.0,4.0
# From MPC 89309
C/2011 F1 (LINEAR),e,56.3815,85.1972,192.6056,3837,0.0000041,0.99952102,0.0000,01/01.8291/2013,2000,g  5.0,4.0
# From MPC 79866
P/2011 FR143 (Lemmon),e,15.9611,190.8427,349.6090,6.886226,0.0545421,0.45293901,298.2313,12/26.0/2025,2000,g 14.0,2.0
# From MPC106343
C/2011 J2 (LINEAR),h,12/20.3675/2013,122.7897,164.0494,85.4761,1.000290,3.459926,2000,5.5,3.6
# From MPC 82317
P/2011 JB15 (Spacewatch-Boattini),e,19.1269,153.5838,110.6164,7.382274,0.0491382,0.31515544,251.6501,12/26.0/2025,2000,g  9.0,4.0
# From MPEC 2023-J95
C/2011 KP36 (Spacewatch),e,18.9568,173.4017,180.9721,39.39094,0.0039867,0.87496285,13.9616,12/26.0/2025,2000,g  4.5,4.0
# From MPC 87913
P/2011 N1 (ASH),e,35.7831,77.6252,330.5191,6.231531,0.0633595,0.54533416,313.4236,12/26.0/2025,2000,g 11.5,4.0
# From MPEC 2022-ED3
P/2011 P1 (McNaught),e,5.6503,4.2445,349.1392,7.463768,0.0483356,0.32604746,271.9368,12/26.0/2025,2000,g  9.0,4.0
# From MPC107047
C/2011 P2 (PANSTARRS),e,8.9824,203.9256,76.2180,9.765868,0.0322952,0.36526596,181.3053,12/26.0/2025,2000,g  8.5,4.0
# From MPEC 2022-HC2
P/2011 S1 (Gibbs),e,2.6876,218.8978,193.0309,8.600324,0.0390780,0.20050578,161.8537,12/26.0/2025,2000,g  8.0,4.0
# From MPEC 2023-UR6
P/2011 V1 (Boattini),e,7.3823,46.4910,269.5918,3.858177,0.1300562,0.54838008,344.5850,12/26.0/2025,2000,g 15.5,4.0
# From MPC 82718
P/2011 W1 (PANSTARRS),e,3.7158,161.7931,283.1002,4.675603,0.0974872,0.28831094,137.9816,12/26.0/2025,2000,g 11.5,4.0
# From MPC 79342
